[{"OBJECT_NAME":"OBJECT AL","OBJECT_ID":"2023-085AL","EPOCH":"2026-03-09T22:26:04.970400","MEAN_MOTION":15.31857284,"ECCENTRICITY":0.000802,"INCLINATION":97.4839,"RA_OF_ASC_NODE":180.0127,"ARG_OF_PERICENTER":78.7242,"MEAN_ANOMALY":281.49,"EPHEMERIS_TYPE":0,"CLASSIFICATION_TYPE":"U","NORAD_CAT_ID":57038,"ELEMENT_SET_NO":999,"REV_AT_EPOCH":15154,"BSTAR":0.0006591637,"MEAN_MOTION_DOT":0.00020246,"MEAN_MOTION_DDOT":0},{"OBJECT_NAME":"STARLINK-32148","OBJECT_ID":"2024-131J","EPOCH":"2026-03-09T06:25:32.989152","MEAN_MOTION":15.30189069,"ECCENTRICITY":0.00012409,"INCLINATION":53.1611,"RA_OF_ASC_NODE":54.4138,"ARG_OF_PERICENTER":91.6952,"MEAN_ANOMALY":268.4191,"EPHEMERIS_TYPE":0,"CLASSIFICATION_TYPE":"U","NORAD_CAT_ID":60263,"ELEMENT_SET_NO":999,"REV_AT_EPOCH":9170,"BSTAR":2.7625241e-5,"MEAN_MOTION_DOT":4.59e-6,"MEAN_MOTION_DDOT":0}]
